[{"OBJECT_NAME":"STARLINK-30107","OBJECT_ID":"2023-056B","EPOCH":"2025-12-21T18:46:42.795264","MEAN_MOTION":15.27585536,"ECCENTRICITY":7.52e-5,"INCLINATION":42.9987,"RA_OF_ASC_NODE":271.1274,"ARG_OF_PERICENTER":258.2632,"MEAN_ANOMALY":101.8135,"EPHEMERIS_TYPE":0,"CLASSIFICATION_TYPE":"U","NORAD_CAT_ID":56287,"ELEMENT_SET_NO":999,"REV_AT_EPOCH":14838,"BSTAR":4.6577e-5,"MEAN_MOTION_DOT":1.02e-5,"MEAN_MOTION_DDOT":0},{"OBJECT_NAME":"STARLINK-30106","OBJECT_ID":"2023-056C","EPOCH":"2025-12-21T11:45:35.597376","MEAN_MOTION":15.0253575,"ECCENTRICITY":0.00011547,"INCLINATION":43.0037,"RA_OF_ASC_NODE":274.9444,"ARG_OF_PERICENTER":269.2402,"MEAN_ANOMALY":90.8308,"EPHEMERIS_TYPE":0,"CLASSIFICATION_TYPE":"U","NORAD_CAT_ID":56288,"ELEMENT_SET_NO":999,"REV_AT_EPOCH":14826,"BSTAR":7.5434659e-5,"MEAN_MOTION_DOT":8.16e-6,"MEAN_MOTION_DDOT":0},{"OBJECT_NAME":"STARLINK-30095","OBJECT_ID":"2023-056D","EPOCH":"2025-12-21T17:16:38.387136","MEAN_MOTION":15.02535726,"ECCENTRICITY":0.0001024,"INCLINATION":43.0029,"RA_OF_ASC_NODE":247.9324,"ARG_OF_PERICENTER":272.0803,"MEAN_ANOMALY":87.9922,"EPHEMERIS_TYPE":0,"CLASSIFICATION_TYPE":"U","NORAD_CAT_ID":56289,"ELEMENT_SET_NO":999,"REV_AT_EPOCH":14859,"BSTAR":5.394e-6,"MEAN_MOTION_DOT":-1.31e-6,"MEAN_MOTION_DDOT":0},{"OBJECT_NAME":"STARLINK-30103","OBJECT_ID":"2023-056E","EPOCH":"2025-12-21T11:40:48.192960","MEAN_MOTION":15.02532361,"ECCENTRICITY":0.00010298,"INCLINATION":43.0036,"RA_OF_ASC_NODE":274.9213,"ARG_OF_PERICENTER":267.907,"MEAN_ANOMALY":92.1654,"EPHEMERIS_TYPE":0,"CLASSIFICATION_TYPE":"U","NORAD_CAT_ID":56290,"ELEMENT_SET_NO":999,"REV_AT_EPOCH":14826,"BSTAR":2.644338e-6,"MEAN_MOTION_DOT":-1.68e-6,"MEAN_MOTION_DDOT":0},{"OBJECT_NAME":"STARLINK-30113","OBJECT_ID":"2023-056F","EPOCH":"2025-12-21T19:49:01.509024","MEAN_MOTION":15.02537779,"ECCENTRICITY":0.0001121,"INCLINATION":43.005,"RA_OF_ASC_NODE":273.1562,"ARG_OF_PERICENTER":266.4451,"MEAN_ANOMALY":93.6264,"EPHEMERIS_TYPE":0,"CLASSIFICATION_TYPE":"U","NORAD_CAT_ID":56291,"ELEMENT_SET_NO":999,"REV_AT_EPOCH":14831,"BSTAR":2.7286e-5,"MEAN_MOTION_DOT":1.65e-6,"MEAN_MOTION_DDOT":0},{"OBJECT_NAME":"STARLINK-30098","OBJECT_ID":"2023-056G","EPOCH":"2025-12-21T11:35:59.999712","MEAN_MOTION":15.02535503,"ECCENTRICITY":0.00011045,"INCLINATION":43.0036,"RA_OF_ASC_NODE":274.8864,"ARG_OF_PERICENTER":274.3237,"MEAN_ANOMALY":85.7479,"EPHEMERIS_TYPE":0,"CLASSIFICATION_TYPE":"U","NORAD_CAT_ID":56292,"ELEMENT_SET_NO":999,"REV_AT_EPOCH":14826,"BSTAR":8.5667038e-5,"MEAN_MOTION_DOT":9.54e-6,"MEAN_MOTION_DDOT":0},{"OBJECT_NAME":"STARLINK-30090","OBJECT_ID":"2023-056H","EPOCH":"2025-12-21T11:26:34.685376","MEAN_MOTION":15.02535719,"ECCENTRICITY":0.00011341,"INCLINATION":43.0046,"RA_OF_ASC_NODE":275.682,"ARG_OF_PERICENTER":272.4496,"MEAN_ANOMALY":87.6216,"EPHEMERIS_TYPE":0,"CLASSIFICATION_TYPE":"U","NORAD_CAT_ID":56293,"ELEMENT_SET_NO":999,"REV_AT_EPOCH":14825,"BSTAR":1.9763018e-5,"MEAN_MOTION_DOT":6.3e-7,"MEAN_MOTION_DDOT":0},{"OBJECT_NAME":"STARLINK-30049","OBJECT_ID":"2023-056J","EPOCH":"2025-12-21T11:21:46.008288","MEAN_MOTION":15.02536151,"ECCENTRICITY":0.00010444,"INCLINATION":43.004,"RA_OF_ASC_NODE":275.5983,"ARG_OF_PERICENTER":275.2687,"MEAN_ANOMALY":84.8036,"EPHEMERIS_TYPE":0,"CLASSIFICATION_TYPE":"U","NORAD_CAT_ID":56294,"ELEMENT_SET_NO":999,"REV_AT_EPOCH":14825,"BSTAR":4.1147502e-5,"MEAN_MOTION_DOT":3.52e-6,"MEAN_MOTION_DDOT":0},{"OBJECT_NAME":"STARLINK-30083","OBJECT_ID":"2023-056K","EPOCH":"2025-12-21T01:38:31.964064","MEAN_MOTION":15.02536915,"ECCENTRICITY":9.408e-5,"INCLINATION":43.0027,"RA_OF_ASC_NODE":251.6284,"ARG_OF_PERICENTER":278.774,"MEAN_ANOMALY":81.2996,"EPHEMERIS_TYPE":0,"CLASSIFICATION_TYPE":"U","NORAD_CAT_ID":56295,"ELEMENT_SET_NO":999,"REV_AT_EPOCH":14849,"BSTAR":4.6666293e-5,"MEAN_MOTION_DOT":4.27e-6,"MEAN_MOTION_DDOT":0},{"OBJECT_NAME":"STARLINK-30089","OBJECT_ID":"2023-056L","EPOCH":"2025-12-21T00:03:09.793152","MEAN_MOTION":15.02540606,"ECCENTRICITY":9.726e-5,"INCLINATION":43.0029,"RA_OF_ASC_NODE":238.9552,"ARG_OF_PERICENTER":259.0745,"MEAN_ANOMALY":100.9988,"EPHEMERIS_TYPE":0,"CLASSIFICATION_TYPE":"U","NORAD_CAT_ID":56296,"ELEMENT_SET_NO":999,"REV_AT_EPOCH":14863,"BSTAR":7.0811051e-5,"MEAN_MOTION_DOT":7.53e-6,"MEAN_MOTION_DDOT":0},{"OBJECT_NAME":"STARLINK-30086","OBJECT_ID":"2023-056M","EPOCH":"2025-12-21T18:51:38.426688","MEAN_MOTION":15.025363,"ECCENTRICITY":9.48e-5,"INCLINATION":43.0036,"RA_OF_ASC_NODE":273.641,"ARG_OF_PERICENTER":271.3209,"MEAN_ANOMALY":88.7525,"EPHEMERIS_TYPE":0,"CLASSIFICATION_TYPE":"U","NORAD_CAT_ID":56297,"ELEMENT_SET_NO":999,"REV_AT_EPOCH":14830,"BSTAR":2.1448e-5,"MEAN_MOTION_DOT":8.6e-7,"MEAN_MOTION_DDOT":0},{"OBJECT_NAME":"STARLINK-30109","OBJECT_ID":"2023-056N","EPOCH":"2025-12-20T20:41:02.371200","MEAN_MOTION":15.02533842,"ECCENTRICITY":0.0001098,"INCLINATION":43.0029,"RA_OF_ASC_NODE":278.7519,"ARG_OF_PERICENTER":268.7997,"MEAN_ANOMALY":91.2719,"EPHEMERIS_TYPE":0,"CLASSIFICATION_TYPE":"U","NORAD_CAT_ID":56298,"ELEMENT_SET_NO":999,"REV_AT_EPOCH":14822,"BSTAR":1.0375e-5,"MEAN_MOTION_DOT":-6.3e-7,"MEAN_MOTION_DDOT":0},{"OBJECT_NAME":"STARLINK-30108","OBJECT_ID":"2023-056P","EPOCH":"2025-12-21T00:40:49.269792","MEAN_MOTION":15.02535527,"ECCENTRICITY":9.945e-5,"INCLINATION":43.0025,"RA_OF_ASC_NODE":265.2847,"ARG_OF_PERICENTER":268.8396,"MEAN_ANOMALY":91.2332,"EPHEMERIS_TYPE":0,"CLASSIFICATION_TYPE":"U","NORAD_CAT_ID":56299,"ELEMENT_SET_NO":999,"REV_AT_EPOCH":14839,"BSTAR":-1.1415208e-5,"MEAN_MOTION_DOT":-3.58e-6,"MEAN_MOTION_DDOT":0},{"OBJECT_NAME":"STARLINK-30104","OBJECT_ID":"2023-056Q","EPOCH":"2025-12-21T17:54:07.038720","MEAN_MOTION":15.02536636,"ECCENTRICITY":0.0001073,"INCLINATION":43.0027,"RA_OF_ASC_NODE":273.4257,"ARG_OF_PERICENTER":276.7141,"MEAN_ANOMALY":83.3579,"EPHEMERIS_TYPE":0,"CLASSIFICATION_TYPE":"U","NORAD_CAT_ID":56300,"ELEMENT_SET_NO":999,"REV_AT_EPOCH":14836,"BSTAR":4.661e-5,"MEAN_MOTION_DOT":4.26e-6,"MEAN_MOTION_DDOT":0},{"OBJECT_NAME":"STARLINK-30101","OBJECT_ID":"2023-056R","EPOCH":"2025-12-21T12:14:21.323328","MEAN_MOTION":15.02535918,"ECCENTRICITY":0.00010463,"INCLINATION":43.0032,"RA_OF_ASC_NODE":275.0777,"ARG_OF_PERICENTER":270.8691,"MEAN_ANOMALY":89.2031,"EPHEMERIS_TYPE":0,"CLASSIFICATION_TYPE":"U","NORAD_CAT_ID":56301,"ELEMENT_SET_NO":999,"REV_AT_EPOCH":14832,"BSTAR":5.3988815e-5,"MEAN_MOTION_DOT":5.26e-6,"MEAN_MOTION_DDOT":0},{"OBJECT_NAME":"STARLINK-30111","OBJECT_ID":"2023-056S","EPOCH":"2025-12-21T20:03:23.717088","MEAN_MOTION":15.02540771,"ECCENTRICITY":0.0001094,"INCLINATION":43.0024,"RA_OF_ASC_NODE":273.1558,"ARG_OF_PERICENTER":269.3875,"MEAN_ANOMALY":90.6842,"EPHEMERIS_TYPE":0,"CLASSIFICATION_TYPE":"U","NORAD_CAT_ID":56302,"ELEMENT_SET_NO":999,"REV_AT_EPOCH":14837,"BSTAR":2.0578e-5,"MEAN_MOTION_DOT":7.4e-7,"MEAN_MOTION_DDOT":0},{"OBJECT_NAME":"STARLINK-30099","OBJECT_ID":"2023-056U","EPOCH":"2025-12-21T11:59:58.610688","MEAN_MOTION":15.02525779,"ECCENTRICITY":0.00010288,"INCLINATION":43.0037,"RA_OF_ASC_NODE":274.9249,"ARG_OF_PERICENTER":263.4629,"MEAN_ANOMALY":96.6096,"EPHEMERIS_TYPE":0,"CLASSIFICATION_TYPE":"U","NORAD_CAT_ID":56304,"ELEMENT_SET_NO":999,"REV_AT_EPOCH":14832,"BSTAR":-7.3119412e-5,"MEAN_MOTION_DOT":-1.191e-5,"MEAN_MOTION_DDOT":0},{"OBJECT_NAME":"STARLINK-30094","OBJECT_ID":"2023-056V","EPOCH":"2025-12-21T19:53:48.077952","MEAN_MOTION":15.02536322,"ECCENTRICITY":9.88e-5,"INCLINATION":43.0035,"RA_OF_ASC_NODE":273.0839,"ARG_OF_PERICENTER":278.181,"MEAN_ANOMALY":81.892,"EPHEMERIS_TYPE":0,"CLASSIFICATION_TYPE":"U","NORAD_CAT_ID":56305,"ELEMENT_SET_NO":999,"REV_AT_EPOCH":14837,"BSTAR":8.2459e-5,"MEAN_MOTION_DOT":9.1e-6,"MEAN_MOTION_DDOT":0},{"OBJECT_NAME":"STARLINK-30112","OBJECT_ID":"2023-056W","EPOCH":"2025-12-21T12:09:33.308064","MEAN_MOTION":15.0253577,"ECCENTRICITY":6.304e-5,"INCLINATION":43.0039,"RA_OF_ASC_NODE":274.9854,"ARG_OF_PERICENTER":160.7499,"MEAN_ANOMALY":199.3367,"EPHEMERIS_TYPE":0,"CLASSIFICATION_TYPE":"U","NORAD_CAT_ID":56306,"ELEMENT_SET_NO":999,"REV_AT_EPOCH":14832,"BSTAR":3.753818e-5,"MEAN_MOTION_DOT":3.04e-6,"MEAN_MOTION_DDOT":0},{"OBJECT_NAME":"STARLINK-6038","OBJECT_ID":"2023-058A","EPOCH":"2025-12-21T13:52:30.311904","MEAN_MOTION":15.05645631,"ECCENTRICITY":0.000211,"INCLINATION":97.6042,"RA_OF_ASC_NODE":354.2239,"ARG_OF_PERICENTER":84.6642,"MEAN_ANOMALY":275.4826,"EPHEMERIS_TYPE":0,"CLASSIFICATION_TYPE":"U","NORAD_CAT_ID":56317,"ELEMENT_SET_NO":999,"REV_AT_EPOCH":14609,"BSTAR":-4.7796e-5,"MEAN_MOTION_DOT":-7.5e-6,"MEAN_MOTION_DDOT":0},{"OBJECT_NAME":"STARLINK-5954","OBJECT_ID":"2023-058B","EPOCH":"2025-12-21T13:12:37.854432","MEAN_MOTION":15.05647517,"ECCENTRICITY":0.0001796,"INCLINATION":97.6048,"RA_OF_ASC_NODE":354.2592,"ARG_OF_PERICENTER":88.7964,"MEAN_ANOMALY":271.3468,"EPHEMERIS_TYPE":0,"CLASSIFICATION_TYPE":"U","NORAD_CAT_ID":56318,"ELEMENT_SET_NO":999,"REV_AT_EPOCH":14609,"BSTAR":2.6397e-5,"MEAN_MOTION_DOT":3.2e-6,"MEAN_MOTION_DDOT":0},{"OBJECT_NAME":"STARLINK-6039","OBJECT_ID":"2023-058C","EPOCH":"2025-12-21T18:07:02.915040","MEAN_MOTION":15.01262333,"ECCENTRICITY":6.89e-5,"INCLINATION":97.6074,"RA_OF_ASC_NODE":353.8452,"ARG_OF_PERICENTER":101.1502,"MEAN_ANOMALY":258.9799,"EPHEMERIS_TYPE":0,"CLASSIFICATION_TYPE":"U","NORAD_CAT_ID":56319,"ELEMENT_SET_NO":999,"REV_AT_EPOCH":14608,"BSTAR":5.5925e-5,"MEAN_MOTION_DOT":6.6e-6,"MEAN_MOTION_DDOT":0},{"OBJECT_NAME":"STARLINK-5988","OBJECT_ID":"2023-058D","EPOCH":"2025-12-21T18:15:24.822144","MEAN_MOTION":15.01263909,"ECCENTRICITY":8.38e-5,"INCLINATION":97.6067,"RA_OF_ASC_NODE":353.8299,"ARG_OF_PERICENTER":163.9104,"MEAN_ANOMALY":196.2147,"EPHEMERIS_TYPE":0,"CLASSIFICATION_TYPE":"U","NORAD_CAT_ID":56320,"ELEMENT_SET_NO":999,"REV_AT_EPOCH":14609,"BSTAR":8.6715e-5,"MEAN_MOTION_DOT":1.056e-5,"MEAN_MOTION_DDOT":0}]
